{
  "type": "FeatureCollection",
  "features": [
    {
      "type": "Feature",
      "properties": {
        "norad_id": 37562,
        "name": "IRIDIUM 33 DEB",
        "group": "iridium-33-debris",
        "lat": -60.30298220338484,
        "lon": -130.23263106033446,
        "alt_km": 725.1245811195913,
        "timestamp": "2025-12-13T05:42:57.956777+00:00",
        "meta_object_name": "IRIDIUM 33 DEB",
        "meta_object_id": "1997-051XX",
        "meta_epoch": "2025-12-10T10:43:42.898656",
        "meta_mean_motion": 14.56439028,
        "meta_eccentricity": 0.00267432,
        "meta_inclination": 86.3738,
        "meta_ra_of_asc_node": 44.6002,
        "meta_arg_of_pericenter": 115.0841,
        "meta_mean_anomaly": 259.891,
        "meta_ephemeris_type": 0,
        "meta_classification_type": "U",
        "meta_norad_cat_id": 37562,
        "meta_element_set_no": 999,
        "meta_rev_at_epoch": 86295,
        "meta_bstar": 0.0016081413,
        "meta_mean_motion_dot": 7.198e-05,
        "meta_mean_motion_ddot": 0,
        "tle_line1": "1 37562U 97051XX  25344.44702429  .00007198  00000+0  16081-2 0  9997",
        "tle_line2": "2 37562  86.3738  44.6002 0026743 115.0841 259.8910 14.56439028862954"
      },
      "geometry": {
        "type": "Point",
        "coordinates": [
          -130.23263106033446,
          -60.30298220338484
        ]
      }
    },
    {
      "type": "Feature",
      "properties": {
        "norad_id": 37565,
        "name": "IRIDIUM 33 DEB",
        "group": "iridium-33-debris",
        "lat": 11.818465545762853,
        "lon": 10.126905485787193,
        "alt_km": 718.2033588984277,
        "timestamp": "2025-12-13T05:42:57.956787+00:00",
        "meta_object_name": "IRIDIUM 33 DEB",
        "meta_object_id": "1997-051YA",
        "meta_epoch": "2025-12-09T09:00:32.620320",
        "meta_mean_motion": 14.51496664,
        "meta_eccentricity": 0.00152947,
        "meta_inclination": 86.3494,
        "meta_ra_of_asc_node": 11.0435,
        "meta_arg_of_pericenter": 94.02,
        "meta_mean_anomaly": 266.2754,
        "meta_ephemeris_type": 0,
        "meta_classification_type": "U",
        "meta_norad_cat_id": 37565,
        "meta_element_set_no": 999,
        "meta_rev_at_epoch": 65788,
        "meta_bstar": 0.00087733557,
        "meta_mean_motion_dot": 3.53e-05,
        "meta_mean_motion_ddot": 0,
        "tle_line1": "1 37565U 97051YA  25343.37537755  .00003530  00000+0  87734-3 0  9999",
        "tle_line2": "2 37565  86.3494  11.0435 0015294  94.0200 266.2754 14.51496664657884"
      },
      "geometry": {
        "type": "Point",
        "coordinates": [
          10.126905485787193,
          11.818465545762853
        ]
      }
    },
    {
      "type": "Feature",
      "properties": {
        "norad_id": 38017,
        "name": "IRIDIUM 33 DEB",
        "group": "iridium-33-debris",
        "lat": 83.32104629968487,
        "lon": -47.10370754869357,
        "alt_km": 656.3076558461107,
        "timestamp": "2025-12-13T05:42:57.956798+00:00",
        "meta_object_name": "IRIDIUM 33 DEB",
        "meta_object_id": "1997-051YD",
        "meta_epoch": "2025-12-09T11:46:33.949344",
        "meta_mean_motion": 14.48798991,
        "meta_eccentricity": 0.0092342,
        "meta_inclination": 86.3421,
        "meta_ra_of_asc_node": 167.6378,
        "meta_arg_of_pericenter": 113.8595,
        "meta_mean_anomaly": 247.2321,
        "meta_ephemeris_type": 0,
        "meta_classification_type": "U",
        "meta_norad_cat_id": 38017,
        "meta_element_set_no": 999,
        "meta_rev_at_epoch": 61355,
        "meta_bstar": 0.0067532519,
        "meta_mean_motion_dot": 0.00027013,
        "meta_mean_motion_ddot": 0,
        "tle_line1": "1 38017U 97051YD  25343.49067071  .00027013  00000+0  67533-2 0  9990",
        "tle_line2": "2 38017  86.3421 167.6378 0092342 113.8595 247.2321 14.48798991613556"
      },
      "geometry": {
        "type": "Point",
        "coordinates": [
          -47.10370754869357,
          83.32104629968487
        ]
      }
    },
    {
      "type": "Feature",
      "properties": {
        "norad_id": 38022,
        "name": "IRIDIUM 33 DEB",
        "group": "iridium-33-debris",
        "lat": -43.831946206199994,
        "lon": -160.1834643532221,
        "alt_km": 794.327101576775,
        "timestamp": "2025-12-13T05:42:57.956808+00:00",
        "meta_object_name": "IRIDIUM 33 DEB",
        "meta_object_id": "1997-051YJ",
        "meta_epoch": "2025-12-10T20:01:44.139360",
        "meta_mean_motion": 14.41229968,
        "meta_eccentricity": 0.0046709,
        "meta_inclination": 86.2688,
        "meta_ra_of_asc_node": 17.2769,
        "meta_arg_of_pericenter": 56.5664,
        "meta_mean_anomaly": 303.9989,
        "meta_ephemeris_type": 0,
        "meta_classification_type": "U",
        "meta_norad_cat_id": 38022,
        "meta_element_set_no": 999,
        "meta_rev_at_epoch": 69166,
        "meta_bstar": 0.0014202,
        "meta_mean_motion_dot": 4.664e-05,
        "meta_mean_motion_ddot": 0,
        "tle_line1": "1 38022U 97051YJ  25344.83453865  .00004664  00000+0  14202-2 0  9997",
        "tle_line2": "2 38022  86.2688  17.2769 0046709  56.5664 303.9989 14.41229968691660"
      },
      "geometry": {
        "type": "Point",
        "coordinates": [
          -160.1834643532221,
          -43.831946206199994
        ]
      }
    },
    {
      "type": "Feature",
      "properties": {
        "norad_id": 38028,
        "name": "IRIDIUM 33 DEB",
        "group": "iridium-33-debris",
        "lat": 15.837970755738228,
        "lon": 1.0975801912940013,
        "alt_km": 743.6085064855706,
        "timestamp": "2025-12-13T05:42:57.956819+00:00",
        "meta_object_name": "IRIDIUM 33 DEB",
        "meta_object_id": "1997-051YQ",
        "meta_epoch": "2025-12-09T08:38:54.868992",
        "meta_mean_motion": 14.46171938,
        "meta_eccentricity": 0.00301795,
        "meta_inclination": 86.3256,
        "meta_ra_of_asc_node": 1.7381,
        "meta_arg_of_pericenter": 131.6061,
        "meta_mean_anomaly": 228.7734,
        "meta_ephemeris_type": 0,
        "meta_classification_type": "U",
        "meta_norad_cat_id": 38028,
        "meta_element_set_no": 999,
        "meta_rev_at_epoch": 65446,
        "meta_bstar": 0.0004464513,
        "meta_mean_motion_dot": 1.624e-05,
        "meta_mean_motion_ddot": 0,
        "tle_line1": "1 38028U 97051YQ  25343.36035728  .00001624  00000+0  44645-3 0  9992",
        "tle_line2": "2 38028  86.3256   1.7381 0030179 131.6061 228.7734 14.46171938654463"
      },
      "geometry": {
        "type": "Point",
        "coordinates": [
          1.0975801912940013,
          15.837970755738228
        ]
      }
    },
    {
      "type": "Feature",
      "properties": {
        "norad_id": 38228,
        "name": "IRIDIUM 33 DEB",
        "group": "iridium-33-debris",
        "lat": -81.93015062447331,
        "lon": 21.066517503534453,
        "alt_km": 807.4790379742626,
        "timestamp": "2025-12-13T05:42:57.956829+00:00",
        "meta_object_name": "IRIDIUM 33 DEB",
        "meta_object_id": "1997-051ZC",
        "meta_epoch": "2025-12-08T11:59:08.255904",
        "meta_mean_motion": 14.27257685,
        "meta_eccentricity": 0.00637921,
        "meta_inclination": 86.2952,
        "meta_ra_of_asc_node": 50.2726,
        "meta_arg_of_pericenter": 203.1298,
        "meta_mean_anomaly": 220.077,
        "meta_ephemeris_type": 0,
        "meta_classification_type": "U",
        "meta_norad_cat_id": 38228,
        "meta_element_set_no": 999,
        "meta_rev_at_epoch": 84721,
        "meta_bstar": 0.00059886698,
        "meta_mean_motion_dot": 1.514e-05,
        "meta_mean_motion_ddot": 0,
        "tle_line1": "1 38228U 97051ZC  25342.49940111  .00001514  00000+0  59887-3 0  9990",
        "tle_line2": "2 38228  86.2952  50.2726 0063792 203.1298 220.0770 14.27257685847218"
      },
      "geometry": {
        "type": "Point",
        "coordinates": [
          21.066517503534453,
          -81.93015062447331
        ]
      }
    },
    {
      "type": "Feature",
      "properties": {
        "norad_id": 38241,
        "name": "IRIDIUM 33 DEB",
        "group": "iridium-33-debris",
        "lat": -67.26414614468925,
        "lon": 179.2062314523194,
        "alt_km": 721.1269827523392,
        "timestamp": "2025-12-13T05:42:57.956840+00:00",
        "meta_object_name": "IRIDIUM 33 DEB",
        "meta_object_id": "1997-051ZR",
        "meta_epoch": "2025-12-11T08:00:47.481696",
        "meta_mean_motion": 14.54853492,
        "meta_eccentricity": 0.00056662,
        "meta_inclination": 86.3236,
        "meta_ra_of_asc_node": 351.2198,
        "meta_arg_of_pericenter": 76.7484,
        "meta_mean_anomaly": 283.4354,
        "meta_ephemeris_type": 0,
        "meta_classification_type": "U",
        "meta_norad_cat_id": 38241,
        "meta_element_set_no": 999,
        "meta_rev_at_epoch": 60180,
        "meta_bstar": 0.0013259899,
        "meta_mean_motion_dot": 5.712e-05,
        "meta_mean_motion_ddot": 0,
        "tle_line1": "1 38241U 97051ZR  25345.33388289  .00005712  00000+0  13260-2 0  9991",
        "tle_line2": "2 38241  86.3236 351.2198 0005666  76.7484 283.4354 14.54853492601805"
      },
      "geometry": {
        "type": "Point",
        "coordinates": [
          179.2062314523194,
          -67.26414614468925
        ]
      }
    }
  ]
}